{"type": "FeatureCollection", "features": [ {"type": "Feature", "properties": {"norad_id": 31212, "name": "FENGYUN 1C DEB", "group": "fengyun-1c-debris", "lat": -45.51382291234428, "lon": -174.738656918166, "alt_km": 817.6812283897216, "timestamp": "2025-12-09T09:46:47.927000+00:00", "meta": {"OBJECT_NAME": "FENGYUN 1C DEB", "OBJECT_ID": "1999-025BKS", "EPOCH": "2025-11-25T01:25:48.692640", "MEAN_MOTION": 14.12981607, "ECCENTRICITY": 0.00745379, "INCLINATION": 99.223, "RA_OF_ASC_NODE": 0.0078, "ARG_OF_PERICENTER": 220.8092, "MEAN_ANOMALY": 138.7482, "EPHEMERIS_TYPE": 0, "CLASSIFICATION_TYPE": "U", "NORAD_CAT_ID": 31212, "ELEMENT_SET_NO": 999, "REV_AT_EPOCH": 95409, "BSTAR": 0.0015990818, "MEAN_MOTION_DOT": 3.014e-05, "MEAN_MOTION_DDOT": 0}, "tle": {"line1": "1 31212U 99025BKS 25329.05959135  .00003014  00000+0  15991-2 0  9996", "line2": "2 31212  99.2230   0.0078 0074537 220.8092 138.7482 14.12981607954099"}}, "geometry": {"type": "Point", "coordinates": [-174.738656918166, -45.51382291234428]}}, {"type": "Feature", "properties": {"norad_id": 31215, "name": "FENGYUN 1C DEB", "group": "fengyun-1c-debris", "lat": -40.232550094237155, "lon": -164.9161236690483, "alt_km": 737.0047342275784, "timestamp": "2025-12-09T09:46:47.927010+00:00", "meta": {"OBJECT_NAME": "FENGYUN 1C DEB", "OBJECT_ID": "1999-025BKV", "EPOCH": "2025-12-01T19:24:11.403648", "MEAN_MOTION": 14.33696459, "ECCENTRICITY": 0.00702274, "INCLINATION": 99.0744, "RA_OF_ASC_NODE": 179.3473, "ARG_OF_PERICENTER": 355.6358, "MEAN_ANOMALY": 4.4204, "EPHEMERIS_TYPE": 0, "CLASSIFICATION_TYPE": "U", "NORAD_CAT_ID": 31215, "ELEMENT_SET_NO": 999, "REV_AT_EPOCH": 96369, "BSTAR": 0.00097709666, "MEAN_MOTION_DOT": 2.74e-05, "MEAN_MOTION_DDOT": 0}, "tle": {"line1": "1 31215U 99025BKV 25335.80846532  .00002740  00000+0  97710-3 0  9990", "line2": "2 31215  99.0744 179.3473 0070227 355.6358   4.4204 14.33696459963691"}}, "geometry": {"type": "Point", "coordinates": [-164.9161236690483, -40.232550094237155]}}, {"type": "Feature", "properties": {"norad_id": 31217, "name": "FENGYUN 1C DEB", "group": "fengyun-1c-debris", "lat": -49.992973662013014, "lon": 1.8238899245519362, "alt_km": 895.0358660426673, "timestamp": "2025-12-09T09:46:47.927021+00:00", "meta": {"OBJECT_NAME": "FENGYUN 1C DEB", "OBJECT_ID": "1999-025BKX", "EPOCH": "2025-12-08T12:00:02.793312", "MEAN_MOTION": 14.17524016, "ECCENTRICITY": 0.00994972, "INCLINATION": 98.6408, "RA_OF_ASC_NODE": 350.5032, "ARG_OF_PERICENTER": 172.1805, "MEAN_ANOMALY": 188.095, "EPHEMERIS_TYPE": 0, "CLASSIFICATION_TYPE": "U", "NORAD_CAT_ID": 31217, "ELEMENT_SET_NO": 999, "REV_AT_EPOCH": 96288, "BSTAR": 0.00097729779, "MEAN_MOTION_DOT": 2.04e-05, "MEAN_MOTION_DDOT": 0}, "tle": {"line1": "1 31217U 99025BKX 25342.50003233  .00002040  00000+0  97730-3 0  9995", "line2": "2 31217  98.6408 350.5032 0099497 172.1805 188.0950 14.17524016962886"}}, "geometry": {"type": "Point", "coordinates": [1.8238899245519362, -49.992973662013014]}}, {"type": "Feature", "properties": {"norad_id": 31218, "name": "FENGYUN 1C DEB", "group": "fengyun-1c-debris", "lat": -81.06934795298676, "lon": -168.76992728102488, "alt_km": 667.4626002930636, "timestamp": "2025-12-09T09:46:47.927032+00:00", "meta": {"OBJECT_NAME": "FENGYUN 1C DEB", "OBJECT_ID": "1999-025BKY", "EPOCH": "2025-12-08T12:59:16.832256", "MEAN_MOTION": 14.72122214, "ECCENTRICITY": 0.0011576, "INCLINATION": 98.8407, "RA_OF_ASC_NODE": 92.3546, "ARG_OF_PERICENTER": 49.3091, "MEAN_ANOMALY": 310.9117, "EPHEMERIS_TYPE": 0, "CLASSIFICATION_TYPE": "U", "NORAD_CAT_ID": 31218, "ELEMENT_SET_NO": 999, "REV_AT_EPOCH": 97021, "BSTAR": 0.0054746, "MEAN_MOTION_DOT": 0.00034609, "MEAN_MOTION_DDOT": 0}, "tle": {"line1": "1 31218U 99025BKY 25342.54116704  .00034609  00000+0  54746-2 0  9993", "line2": "2 31218  98.8407  92.3546 0011576  49.3091 310.9117 14.72122214970215"}}, "geometry": {"type": "Point", "coordinates": [-168.76992728102488, -81.06934795298676]}}, {"type": "Feature", "properties": {"norad_id": 31219, "name": "FENGYUN 1C DEB", "group": "fengyun-1c-debris", "lat": 67.84680619819822, "lon": -163.1665314672979, "alt_km": 826.0084488366529, "timestamp": "2025-12-09T09:46:47.927042+00:00", "meta": {"OBJECT_NAME": "FENGYUN 1C DEB", "OBJECT_ID": "1999-025BKZ", "EPOCH": "2025-12-08T11:10:29.742528", "MEAN_MOTION": 14.13752894, "ECCENTRICITY": 0.00789844, "INCLINATION": 99.2851, "RA_OF_ASC_NODE": 352.1645, "ARG_OF_PERICENTER": 189.1751, "MEAN_ANOMALY": 170.7982, "EPHEMERIS_TYPE": 0, "CLASSIFICATION_TYPE": "U", "NORAD_CAT_ID": 31219, "ELEMENT_SET_NO": 999, "REV_AT_EPOCH": 95509, "BSTAR": 0.0022347754, "MEAN_MOTION_DOT": 4.308e-05, "MEAN_MOTION_DDOT": 0}, "tle": {"line1": "1 31219U 99025BKZ 25342.46562202  .00004308  00000+0  22348-2 0  9999", "line2": "2 31219  99.2851 352.1645 0078984 189.1751 170.7982 14.13752894955092"}}, "geometry": {"type": "Point", "coordinates": [-163.1665314672979, 67.84680619819822]}}, {"type": "Feature", "properties": {"norad_id": 31222, "name": "FENGYUN 1C DEB", "group": "fengyun-1c-debris", "lat": 10.077580666044785, "lon": 51.496948458012305, "alt_km": 533.4610240833399, "timestamp": "2025-12-09T09:46:47.927053+00:00", "meta": {"OBJECT_NAME": "FENGYUN 1C DEB", "OBJECT_ID": "1999-025BLC", "EPOCH": "2025-12-08T22:30:39.648096", "MEAN_MOTION": 14.97692231, "ECCENTRICITY": 0.01706142, "INCLINATION": 98.6115, "RA_OF_ASC_NODE": 52.5227, "ARG_OF_PERICENTER": 81.949, "MEAN_ANOMALY": 280.1048, "EPHEMERIS_TYPE": 0, "CLASSIFICATION_TYPE": "U", "NORAD_CAT_ID": 31222, "ELEMENT_SET_NO": 999, "REV_AT_EPOCH": 99927, "BSTAR": 0.00068621399, "MEAN_MOTION_DOT": 0.0001079, "MEAN_MOTION_DDOT": 0}, "tle": {"line1": "1 31222U 99025BLC 25342.93795889  .00010790  00000+0  68621-3 0  9991", "line2": "2 31222  98.6115  52.5227 0170614  81.9490 280.1048 14.97692231999278"}}, "geometry": {"type": "Point", "coordinates": [51.496948458012305, 10.077580666044785]}}, {"type": "Feature", "properties": {"norad_id": 31223, "name": "FENGYUN 1C DEB", "group": "fengyun-1c-debris", "lat": 51.43970655931798, "lon": 61.366846570540694, "alt_km": 927.8959875269475, "timestamp": "2025-12-09T09:46:47.927063+00:00", "meta": {"OBJECT_NAME": "FENGYUN 1C DEB", "OBJECT_ID": "1999-025BLD", "EPOCH": "2025-12-08T15:45:00.855360", "MEAN_MOTION": 13.77212158, "ECCENTRICITY": 0.02419645, "INCLINATION": 99.0051, "RA_OF_ASC_NODE": 229.1805, "ARG_OF_PERICENTER": 51.571, "MEAN_ANOMALY": 310.6895, "EPHEMERIS_TYPE": 0, "CLASSIFICATION_TYPE": "U", "NORAD_CAT_ID": 31223, "ELEMENT_SET_NO": 999, "REV_AT_EPOCH": 92672, "BSTAR": 0.0033819639, "MEAN_MOTION_DOT": 4.12e-05, "MEAN_MOTION_DDOT": 0}, "tle": {"line1": "1 31223U 99025BLD 25342.65625990  .00004120  00000+0  33820-2 0  9998", "line2": "2 31223  99.0051 229.1805 0241964  51.5710 310.6895 13.77212158926724"}}, "geometry": {"type": "Point", "coordinates": [61.366846570540694, 51.43970655931798]}}, {"type": "Feature", "properties": {"norad_id": 31224, "name": "FENGYUN 1C DEB", "group": "fengyun-1c-debris", "lat": 72.45551870244205, "lon": -52.3182256089961, "alt_km": 802.7686453700117, "timestamp": "2025-12-09T09:46:47.927073+00:00", "meta": {"OBJECT_NAME": "FENGYUN 1C DEB", "OBJECT_ID": "1999-025BLE", "EPOCH": "2025-12-07T05:24:06.867936", "MEAN_MOTION": 14.28881555, "ECCENTRICITY": 0.01576901, "INCLINATION": 98.3695, "RA_OF_ASC_NODE": 333.3388, "ARG_OF_PERICENTER": 179.1537, "MEAN_ANOMALY": 197.3036, "EPHEMERIS_TYPE": 0, "CLASSIFICATION_TYPE": "U", "NORAD_CAT_ID": 31224, "ELEMENT_SET_NO": 999, "REV_AT_EPOCH": 69172, "BSTAR": 0.00051563663, "MEAN_MOTION_DOT": 1.444e-05, "MEAN_MOTION_DDOT": 0}, "tle": {"line1": "1 31224U 99025BLE 25341.22507949  .00001444  00000+0  51564-3 0  9996", "line2": "2 31224  98.3695 333.3388 0157690 179.1537 197.3036 14.28881555691727"}}, "geometry": {"type": "Point", "coordinates": [-52.3182256089961, 72.45551870244205]}}, {"type": "Feature", "properties": {"norad_id": 31225, "name": "FENGYUN 1C DEB", "group": "fengyun-1c-debris", "lat": -80.67953592656197, "lon": 131.2876665563429, "alt_km": 837.9658359294872, "timestamp": "2025-12-09T09:46:47.927084+00:00", "meta": {"OBJECT_NAME": "FENGYUN 1C DEB", "OBJECT_ID": "1999-025BLF", "EPOCH": "2025-12-07T04:07:31.353024", "MEAN_MOTION": 14.17816325, "ECCENTRICITY": 0.00882198, "INCLINATION": 98.9898, "RA_OF_ASC_NODE": 54.33, "ARG_OF_PERICENTER": 7.4861, "MEAN_ANOMALY": 21.4134, "EPHEMERIS_TYPE": 0, "CLASSIFICATION_TYPE": "U", "NORAD_CAT_ID": 31225, "ELEMENT_SET_NO": 999, "REV_AT_EPOCH": 95743, "BSTAR": 0.0019479029, "MEAN_MOTION_DOT": 4.087e-05, "MEAN_MOTION_DDOT": 0}, "tle": {"line1": "1 31225U 99025BLF 25341.17189066  .00004087  00000+0  19479-2 0  9991", "line2": "2 31225  98.9898  54.3300 0088219   7.4861  21.4134 14.17816325957436"}}, "geometry": {"type": "Point", "coordinates": [131.2876665563429, -80.67953592656197]}}, {"type": "Feature", "properties": {"norad_id": 31226, "name": "FENGYUN 1C DEB", "group": "fengyun-1c-debris", "lat": -28.322087668202467, "lon": -12.083924860079136, "alt_km": 860.7099813215036, "timestamp": "2025-12-09T09:46:47.927094+00:00", "meta": {"OBJECT_NAME": "FENGYUN 1C DEB", "OBJECT_ID": "1999-025BLG", "EPOCH": "2025-12-06T17:57:16.149312", "MEAN_MOTION": 14.2667576, "ECCENTRICITY": 0.01264653, "INCLINATION": 98.3501, "RA_OF_ASC_NODE": 340.838, "ARG_OF_PERICENTER": 213.6965, "MEAN_ANOMALY": 145.613, "EPHEMERIS_TYPE": 0, "CLASSIFICATION_TYPE": "U", "NORAD_CAT_ID": 31226, "ELEMENT_SET_NO": 999, "REV_AT_EPOCH": 61968, "BSTAR": 0.00066349543, "MEAN_MOTION_DOT": 1.704e-05, "MEAN_MOTION_DDOT": 0}, "tle": {"line1": "1 31226U 99025BLG 25340.74810358  .00001704  00000+0  66350-3 0  9993", "line2": "2 31226  98.3501 340.8380 0126465 213.6965 145.6130 14.26675760619688"}}, "geometry": {"type": "Point", "coordinates": [-12.083924860079136, -28.322087668202467]}}]}